OBJECT_NAME,OBJECT_ID,EPOCH,MEAN_MOTION,ECCENTRICITY,INCLINATION,RA_OF_ASC_NODE,ARG_OF_PERICENTER,MEAN_ANOMALY,EPHEMERIS_TYPE,CLASSIFICATION_TYPE,NORAD_CAT_ID,ELEMENT_SET_NO,REV_AT_EPOCH,BSTAR,MEAN_MOTION_DOT,MEAN_MOTION_DDOT
CUBEBUG-2 (LO-74),2013-066AA,2026-06-11T07:15:18.483264,14.93713369,.00589328,97.8900,111.2555,48.0727,312.5496,0,U,39440,999,67611,.29202653E-3,.3136E-4,0
FUNCUBE-1 (AO-73),2013-066AE,2026-06-11T03:45:35.066304,15.09415537,.00350863,97.8261,133.4764,221.9456,137.9084,0,U,39444,999,67875,.33386128E-3,.5346E-4,0
UWE-3,2013-066AG,2026-06-10T20:46:39.231840,14.96973562,.00485684,97.8684,117.8971,342.2797,17.6729,0,U,39446,999,67663,.33679492E-3,.3903E-4,0
UNISAT-6,2014-033C,2026-06-11T05:11:54.316896,14.88213258,.00464091,97.7868,315.0345,88.4358,272.2174,0,U,40012,999,64527,.25356805E-3,.233E-4,0
DUCHIFAT-1,2014-033M,2026-06-11T03:15:03.447648,15.63383077,.00040908,98.0470,220.4508,126.2071,233.9565,0,U,40021,999,65480,.10060624E-2,.93384E-3,0
QB50P1,2014-033R,2026-06-11T06:49:20.092512,15.18170156,.00072778,98.0967,173.0166,238.4989,121.5533,0,U,40025,999,65213,.31622197E-3,.6389E-4,0
LILACSAT-2,2015-049K,2026-06-11T06:33:56.335680,15.51249008,.00052719,97.4659,198.8907,273.7919,86.2730,0,U,40908,999,59483,.26363161E-3,.15358E-3,0
FOX-1A (AO-85),2015-058D,2026-06-10T18:42:01.514016,14.90938506,.01300789,64.7757,298.8965,59.0997,302.2830,0,U,40967,999,11261,.21076165E-3,.2273E-4,0
CAS-2T & KS-1Q,2016-066G,2026-06-11T05:09:23.656896,14.44674149,.03425915,98.3821,238.0193,147.5449,214.7325,0,U,41847,999,50393,.21323128E-3,.1469E-4,0
RADFXSAT (FOX-1B),2017-073E,2026-06-11T02:56:05.640000,15.12618427,.01505073,97.4719,29.4615,350.2461,9.5854,0,U,43017,999,46447,.36925361E-3,.8448E-4,0
DIWATA-2B,2018-084H,2026-06-11T07:13:52.258656,15.00424032,.00121883,98.1179,358.2542,189.3169,170.7829,0,U,43678,999,41533,.18422781E-3,.2254E-4,0
ES'HAIL 2,2018-090A,2026-06-11T04:48:44.196192,1.00274232,.00018818,0.0163,315.1028,166.8922,235.5685,0,U,43700,999,2761,0,.162E-5,0
FOX-1CLIFF (AO-95),2018-099N,2026-06-11T02:42:51.950592,15.26583130,.00086139,97.4393,222.3819,20.0469,340.1107,0,U,43770,999,41229,.4121126E-3,.10727E-3,0
ITASAT,2018-099AE,2026-06-11T02:13:57.534528,15.18980538,.00127865,97.4034,213.7264,21.6014,338.5758,0,U,43786,999,41198,.31209576E-3,.6474E-4,0
JY1SAT (JO-97),2018-099AX,2026-06-11T03:47:32.610912,15.33460341,.00041252,97.4137,224.9718,291.9948,68.0856,0,U,43803,999,41270,.42147898E-3,.13564E-3,0
UWE-4,2018-111E,2026-06-11T01:35:05.186400,15.45743461,.00066668,97.5852,90.1763,7.8986,352.2366,0,U,43880,999,40983,.62722516E-3,.30336E-3,0
TIANYAN 01,2019-093C,2026-06-11T06:08:25.249920,14.86509084,.00149984,97.7531,234.6325,104.3841,255.9041,0,U,44881,999,35053,.39843718E-4,.3E-5,0
RS-44 & BREEZE-KM R/B,2019-096E,2026-06-11T05:16:27.256224,12.79748722,.02179093,82.5217,343.6711,158.0781,202.9821,0,U,44909,999,30158,.69851933E-4,.3E-6,0
SALSAT,2020-068K,2026-06-11T06:12:14.093280,15.29713226,.00085551,97.8851,164.9624,332.6699,27.4089,0,U,46495,999,31445,.22075972E-3,.6276E-4,0
XW-3 (CAS-9),2021-131B,2026-06-11T07:01:38.616384,14.41352095,.0005283,98.4972,254.7143,110.2799,249.8958,0,U,50466,999,23426,.1360349E-3,.396E-5,0
GREENCUBE (IO-117),2022-080E,2026-06-01T11:09:37.753056,6.42583280,.00088692,70.1435,303.7143,293.3663,66.6064,0,U,53109,999,9105,0,-.3E-7,0
UMKA 1 (RS40S),2023-091G,2026-06-11T05:42:37.914912,15.20747886,.00139946,97.5058,220.9579,136.2381,223.9966,0,U,57172,999,16310,.24796974E-3,.5402E-4,0
CUBESX-HSE 3 (RS42S),2023-091N,2026-06-11T05:26:30.898464,15.31061560,.00121548,97.5099,227.7389,112.9771,247.2753,0,U,57178,999,16351,.35004049E-3,.10451E-3,0
MONITOR-3 (RS58S),2023-091Q,2026-06-11T05:42:55.601856,15.27719928,.00130848,97.5091,225.6408,119.1616,241.0934,0,U,57180,999,16338,.338429E-3,.9115E-4,0
MONITOR-4 (RS57S),2023-091S,2026-06-11T05:13:15.116448,15.27810441,.00130826,97.5084,225.5908,119.5083,240.7462,0,U,57182,999,16338,.30919406E-3,.8343E-4,0
MONITOR-2 (RS39S),2023-091U,2026-06-11T04:27:39.367584,15.18853070,.00125259,97.5079,220.5076,129.4835,230.7509,0,U,57184,999,16304,.21114544E-3,.4339E-4,0
SVYATOBOR 1 (RS60S),2023-091X,2026-06-11T05:24:46.000224,15.26511693,.00109151,97.5096,226.0095,112.2745,247.9652,0,U,57187,999,16340,.288768E-3,.7478E-4,0
VIZARD-METEO (RS38S),2023-091Z,2026-06-11T05:15:27.044928,15.35833105,.00085846,97.5098,231.5852,95.4893,264.7330,0,U,57189,999,16377,.40518097E-3,.1407E-3,0
POLYTECH-UNIVERSE 3 (RS46S),2023-091AB,2026-06-11T05:07:58.081152,15.19054931,.00164996,97.5054,220.0399,145.9254,214.3043,0,U,57191,999,16304,.20230614E-3,.4185E-4,0
UTMN 2 (RS27S),2023-091AP,2026-06-11T05:56:32.464608,15.31903962,.00094789,97.5094,229.3867,101.4316,258.7990,0,U,57203,999,16363,.35482033E-3,.10869E-3,0
