1 39440U 13066AA 26162.30229726 .00003136 00000+0 29203-3 0 9995 
2 39440 97.8900 111.2555 0058932 48.0727 312.5496 14.93713369676117 
1 39444U 13066AE 26162.15665586 .00005346 00000+0 33386-3 0 9992 
2 39444 97.8261 133.4764 0035086 221.9456 137.9084 15.09415537678753 
1 39446U 13066AG 26161.86573185 .00003903 00000+0 33679-3 0 9996 
2 39446 97.8684 117.8971 0048568 342.2797 17.6729 14.96973562676631 
1 40012U 14033C 26162.21660089 .00002330 00000+0 25357-3 0 9999 
2 40012 97.7868 315.0345 0046409 88.4358 272.2174 14.88213258645275 
1 40021U 14033M 26162.13545657 .00093384 00000+0 10061-2 0 9997 
2 40021 98.0470 220.4508 0004090 126.2071 233.9565 15.63383077654809 
1 40025U 14033R 26162.28426033 .00006389 00000+0 31622-3 0 9999 
2 40025 98.0967 173.0166 0007277 238.4989 121.5533 15.18170156652134 
1 40908U 15049K 26162.27356870 .00015358 00000+0 26363-3 0 9999 
2 40908 97.4659 198.8907 0005271 273.7919 86.2730 15.51249008594838 
1 40967U 15058D 26161.77918419 .00002273 00000+0 21076-3 0 9999 
2 40967 64.7757 298.8965 0130078 59.0997 302.2830 14.90938506112613 
1 41847U 16066G 26162.21485714 .00001469 00000+0 21323-3 0 9995 
2 41847 98.3821 238.0193 0342591 147.5449 214.7325 14.44674149503939 
1 43017U 17073E 26162.12228750 .00008448 00000+0 36925-3 0 9998 
2 43017 97.4719 29.4615 0150507 350.2461 9.5854 15.12618427464473 
1 43678U 18084H 26162.30129929 .00002254 00000+0 18423-3 0 9994 
2 43678 98.1179 358.2542 0012188 189.3169 170.7829 15.00424032415332 
1 43700U 18090A 26162.20051153 .00000162 00000+0 00000+0 0 9993 
2 43700 0.0163 315.1028 0001881 166.8922 235.5685 1.00274232 27619 
1 43770U 18099N 26162.11310128 .00010727 00000+0 41211-3 0 9990 
2 43770 97.4393 222.3819 0008613 20.0469 340.1107 15.26583130412292 
1 43786U 18099AE 26162.09302702 .00006474 00000+0 31210-3 0 9995 
2 43786 97.4034 213.7264 0012786 21.6014 338.5758 15.18980538411980 
1 43803U 18099AX 26162.15801633 .00013564 00000+0 42148-3 0 9999 
2 43803 97.4137 224.9718 0004125 291.9948 68.0856 15.33460341412705 
1 43880U 18111E 26162.06603225 .00030336 00000+0 62723-3 0 9993 
2 43880 97.5852 90.1763 0006666 7.8986 352.2366 15.45743461409830 
1 44881U 19093C 26162.25584780 .00000300 00000+0 39844-4 0 9997 
2 44881 97.7531 234.6325 0014998 104.3841 255.9041 14.86509084350533 
1 44909U 19096E 26162.21975991 .00000030 00000+0 69852-4 0 9997 
2 44909 82.5217 343.6711 0217909 158.0781 202.9821 12.79748722301586 
1 46495U 20068K 26162.25849645 .00006276 00000+0 22076-3 0 9994 
2 46495 97.8851 164.9624 0008555 332.6699 27.4089 15.29713226314456 
1 50466U 21131B 26162.29280806 .00000396 00000+0 13603-3 0 9994 
2 50466 98.4972 254.7143 0005283 110.2799 249.8958 14.41352095234261 
1 53109U 22080E 26152.46502029 -.00000003 00000+0 00000+0 0 9996 
2 53109 70.1435 303.7143 0008869 293.3663 66.6064 6.42583280 91055 
1 57172U 23091G 26162.23793883 .00005402 00000+0 24797-3 0 9999 
2 57172 97.5058 220.9579 0013994 136.2381 223.9966 15.20747886163108 
1 57178U 23091N 26162.22674651 .00010451 00000+0 35004-3 0 9998 
2 57178 97.5099 227.7389 0012154 112.9771 247.2753 15.31061560163512 
1 57180U 23091Q 26162.23814354 .00009115 00000+0 33843-3 0 9992 
2 57180 97.5091 225.6408 0013084 119.1616 241.0934 15.27719928163387 
1 57182U 23091S 26162.21753607 .00008343 00000+0 30919-3 0 9998 
2 57182 97.5084 225.5908 0013082 119.5083 240.7462 15.27810441163389 
1 57184U 23091U 26162.18587231 .00004339 00000+0 21115-3 0 9993 
2 57184 97.5079 220.5076 0012525 129.4835 230.7509 15.18853070163041 
1 57187U 23091X 26162.22553241 .00007478 00000+0 28877-3 0 9994 
2 57187 97.5096 226.0095 0010915 112.2745 247.9652 15.26511693163406 
1 57189U 23091Z 26162.21906302 .00014070 00000+0 40518-3 0 9997 
2 57189 97.5098 231.5852 0008584 95.4893 264.7330 15.35833105163772 
1 57191U 23091AB 26162.21386668 .00004185 00000+0 20231-3 0 9993 
2 57191 97.5054 220.0399 0016499 145.9254 214.3043 15.19054931163048 
1 57203U 23091AP 26162.24759797 .00010869 00000+0 35482-3 0 9997 
2 57203 97.5094 229.3867 0009478 101.4316 258.7990 15.31903962163632 
